start=new Date('2023-02-17T00:00:00.000Z').valueOf();
sats=[{"TLE_LINE1":"1 47595U 21009AZ  23047.61516753 -.00002559  00000-0 -15295-3 0  9990","LAUNCH_DATE":"2021-02-04","EPHEMERIS_TYPE":"0","PERIOD":"95.592","APOAPSIS":"548.200","ARG_OF_PERICENTER":"91.0150","INCLINATION":"53.0545","SEMIMAJOR_AXIS":"6925.359","NORAD_CAT_ID":"47595","MEAN_ELEMENT_THEORY":"SGP4","ELEMENT_SET_NO":"999","TIME_SYSTEM":"UTC","RCS_SIZE":"LARGE","OBJECT_TYPE":"PAYLOAD","DECAY_DATE":null,"MEAN_MOTION_DOT":"-0.00002559","TLE_LINE2":"2 47595  53.0545  16.3618 0001410  91.0150 269.1001 15.06396679112141","OBJECT_ID":"2021-009AZ","REV_AT_EPOCH":"11214","OBJECT_NAME":"STARLINK-2000","PERIAPSIS":"546.247","SITE":"AFETR","REF_FRAME":"TEME","MEAN_MOTION_DDOT":"0.0000000000000","BSTAR":"-0.00015295000000","FILE":"3799178","ECCENTRICITY":"0.00014100","CLASSIFICATION_TYPE":"U","MEAN_ANOMALY":"269.1001","RA_OF_ASC_NODE":"16.3618","GP_ID":"225683546","MEAN_MOTION":"15.06396679","EPOCH":"2023-02-16T14:45:50.474592","CENTER_NAME":"EARTH","COUNTRY_CODE":"US"},{"MEAN_ELEMENT_THEORY":"SGP4","SEMIMAJOR_AXIS":"6925.426","NORAD_CAT_ID":"47596","INCLINATION":"53.0534","ARG_OF_PERICENTER":"78.4129","EPHEMERIS_TYPE":"0","PERIOD":"95.594","APOAPSIS":"547.985","TLE_LINE1":"1 47596U 21009BA  23047.95059107 -.00011811  00000-0 -77585-3 0  9994","LAUNCH_DATE":"2021-02-04","OBJECT_ID":"2021-009BA","OBJECT_NAME":"STARLINK-2001","REV_AT_EPOCH":"11219","MEAN_MOTION_DOT":"-0.00011811","TLE_LINE2":"2 47596  53.0534  14.8590 0001002  78.4129 281.6972 15.06374809112196","OBJECT_TYPE":"PAYLOAD","DECAY_DATE":null,"ELEMENT_SET_NO":"999","TIME_SYSTEM":"UTC","RCS_SIZE":"LARGE","FILE":"3799178","REF_FRAME":"TEME","MEAN_MOTION_DDOT":"0.0000000000000","BSTAR":"-0.00077585000000","PERIAPSIS":"546.597","SITE":"AFETR","COUNTRY_CODE":"US","GP_ID":"225684297","MEAN_MOTION":"15.06374809","CENTER_NAME":"EARTH","EPOCH":"2023-02-16T22:48:51.068448","CLASSIFICATION_TYPE":"U","ECCENTRICITY":"0.00010020","MEAN_ANOMALY":"281.6972","RA_OF_ASC_NODE":"14.8590"},{"REF_FRAME":"TEME","MEAN_MOTION_DDOT":"0.0000000000000","BSTAR":"0.00218030000000","FILE":"3799178","PERIAPSIS":"546.137","SITE":"AFETR","COUNTRY_CODE":"US","CLASSIFICATION_TYPE":"U","ECCENTRICITY":"0.00014110","MEAN_ANOMALY":"246.2711","RA_OF_ASC_NODE":"16.3839","GP_ID":"225684548","MEAN_MOTION":"15.06432299","CENTER_NAME":"EARTH","EPOCH":"2023-02-16T14:40:32.697120","ARG_OF_PERICENTER":"113.8426","INCLINATION":"53.0547","SEMIMAJOR_AXIS":"6925.250","NORAD_CAT_ID":"47597","MEAN_ELEMENT_THEORY":"SGP4","TLE_LINE1":"1 47597U 21009BB  23047.61148955  .00032372  00000-0  21803-2 0  9992","LAUNCH_DATE":"2021-02-04","EPHEMERIS_TYPE":"0","PERIOD":"95.590","APOAPSIS":"548.092","MEAN_MOTION_DOT":"0.00032372","TLE_LINE2":"2 47597  53.0547  16.3839 0001411 113.8426 246.2711 15.06432299112143","OBJECT_ID":"2021-009BB","OBJECT_NAME":"STARLINK-2002","REV_AT_EPOCH":"11214","ELEMENT_SET_NO":"999","TIME_SYSTEM":"UTC","RCS_SIZE":"LARGE","OBJECT_TYPE":"PAYLOAD","DECAY_DATE":null},{"PERIAPSIS":"546.547","SITE":"AFETR","REF_FRAME":"TEME","MEAN_MOTION_DDOT":"0.0000000000000","BSTAR":"0.00152920000000","FILE":"3798959","CLASSIFICATION_TYPE":"U","ECCENTRICITY":"0.00010790","MEAN_ANOMALY":"251.2536","RA_OF_ASC_NODE":"344.8464","GP_ID":"225657875","MEAN_MOTION":"15.06373646","CENTER_NAME":"EARTH","EPOCH":"2023-02-16T22:52:50.204640","COUNTRY_CODE":"US","TLE_LINE1":"1 47598U 21009BC  23047.95335885  .00022553  00000-0  15292-2 0  9995","LAUNCH_DATE":"2021-02-04","EPHEMERIS_TYPE":"0","PERIOD":"95.594","APOAPSIS":"548.042","INCLINATION":"53.0550","ARG_OF_PERICENTER":"108.8570","SEMIMAJOR_AXIS":"6925.429","NORAD_CAT_ID":"47598","MEAN_ELEMENT_THEORY":"SGP4","ELEMENT_SET_NO":"999","TIME_SYSTEM":"UTC","RCS_SIZE":"LARGE","OBJECT_TYPE":"PAYLOAD","DECAY_DATE":null,"MEAN_MOTION_DOT":"0.00022553","TLE_LINE2":"2 47598  53.0550 344.8464 0001079 108.8570 251.2536 15.06373646113237","OBJECT_ID":"2021-009BC","REV_AT_EPOCH":"11323","OBJECT_NAME":"STARLINK-2003"},{"COUNTRY_CODE":"US","MEAN_ANOMALY":"290.0710","CLASSIFICATION_TYPE":"U","ECCENTRICITY":"0.00012890","RA_OF_ASC_NODE":"334.8876","MEAN_MOTION":"15.06376113","GP_ID":"225657879","CENTER_NAME":"EARTH","EPOCH":"2023-02-16T22:38:14.087904","REF_FRAME":"TEME","BSTAR":"0.00076897000000","MEAN_MOTION_DDOT":"0.0000000000000","FILE":"3798959","PERIAPSIS":"546.394","SITE":"AFETR","TLE_LINE2":"2 47599  53.0554 334.8876 0001289  70.0417 290.0710 15.06376113113362","MEAN_MOTION_DOT":"0.00011183","OBJECT_ID":"2021-009BD","OBJECT_NAME":"STARLINK-2004","REV_AT_EPOCH":"11336","TIME_SYSTEM":"UTC","ELEMENT_SET_NO":"999","RCS_SIZE":"LARGE","OBJECT_TYPE":"PAYLOAD","DECAY_DATE":null,"INCLINATION":"53.0554","ARG_OF_PERICENTER":"70.0417","SEMIMAJOR_AXIS":"6925.422","NORAD_CAT_ID":"47599","MEAN_ELEMENT_THEORY":"SGP4","TLE_LINE1":"1 47599U 21009BD  23047.94321861  .00011183  00000-0  76897-3 0  9990","LAUNCH_DATE":"2021-02-04","EPHEMERIS_TYPE":"0","APOAPSIS":"548.179","PERIOD":"95.594"},{"NORAD_CAT_ID":"47600","SEMIMAJOR_AXIS":"6925.409","MEAN_ELEMENT_THEORY":"SGP4","ARG_OF_PERICENTER":"77.9967","INCLINATION":"53.0559","EPHEMERIS_TYPE":"0","PERIOD":"95.593","APOAPSIS":"547.914","TLE_LINE1":"1 47600U 21009BE  23047.96902199  .00012386  00000-0  84940-3 0  9998","LAUNCH_DATE":"2021-02-04","OBJECT_ID":"2021-009BE","REV_AT_EPOCH":"11337","OBJECT_NAME":"STARLINK-2005","MEAN_MOTION_DOT":"0.00012386","TLE_LINE2":"2 47600  53.0559 334.7441 0000924  77.9967 282.1125 15.06380124113378","OBJECT_TYPE":"PAYLOAD","DECAY_DATE":null,"ELEMENT_SET_NO":"999","TIME_SYSTEM":"UTC","RCS_SIZE":"LARGE","FILE":"3798959","REF_FRAME":"TEME","MEAN_MOTION_DDOT":"0.0000000000000","BSTAR":"0.00084940000000","PERIAPSIS":"546.635","SITE":"AFETR","COUNTRY_CODE":"US","GP_ID":"225657878","MEAN_MOTION":"15.06380124","EPOCH":"2023-02-16T23:15:23.499936","CENTER_NAME":"EARTH","CLASSIFICATION_TYPE":"U","ECCENTRICITY":"0.00009240","MEAN_ANOMALY":"282.1125","RA_OF_ASC_NODE":"334.7441"},{"PERIAPSIS":"546.487","SITE":"AFETR","REF_FRAME":"TEME","MEAN_MOTION_DDOT":"0.0000000000000","BSTAR":"0.00068328000000","FILE":"3798959","ECCENTRICITY":"0.00008890","CLASSIFICATION_TYPE":"U","MEAN_ANOMALY":"266.7704","RA_OF_ASC_NODE":"334.8659","GP_ID":"225657667","MEAN_MOTION":"15.06436321","EPOCH":"2023-02-16T22:43:30.705888","CENTER_NAME":"EARTH","COUNTRY_CODE":"US","TLE_LINE1":"1 47601U 21009BF  23047.94688317  .00009921  00000-0  68328-3 0  9993","LAUNCH_DATE":"2021-02-04","EPHEMERIS_TYPE":"0","PERIOD":"95.590","APOAPSIS":"547.718","ARG_OF_PERICENTER":"93.3386","INCLINATION":"53.0540","SEMIMAJOR_AXIS":"6925.237","NORAD_CAT_ID":"47601","MEAN_ELEMENT_THEORY":"SGP4","ELEMENT_SET_NO":"999","TIME_SYSTEM":"UTC","RCS_SIZE":"LARGE","OBJECT_TYPE":"PAYLOAD","DECAY_DATE":null,"MEAN_MOTION_DOT":"0.00009921","TLE_LINE2":"2 47601  53.0540 334.8659 0000889  93.3386 266.7704 15.06436321113369","OBJECT_ID":"2021-009BF","OBJECT_NAME":"STARLINK-2006","REV_AT_EPOCH":"11336"},{"SITE":"AFETR","PERIAPSIS":"546.403","BSTAR":"0.00007914800000","MEAN_MOTION_DDOT":"0.0000000000000","REF_FRAME":"TEME","FILE":"3798959","RA_OF_ASC_NODE":"344.7811","MEAN_ANOMALY":"280.9581","CLASSIFICATION_TYPE":"U","ECCENTRICITY":"0.00012130","EPOCH":"2023-02-16T23:14:04.313472","CENTER_NAME":"EARTH","MEAN_MOTION":"15.06390519","GP_ID":"225657874","COUNTRY_CODE":"US","LAUNCH_DATE":"2021-02-04","TLE_LINE1":"1 47602U 21009BG  23047.96810548  .00000897  00000-0  79148-4 0  9995","APOAPSIS":"548.083","PERIOD":"95.593","EPHEMERIS_TYPE":"0","INCLINATION":"53.0546","ARG_OF_PERICENTER":"79.1544","SEMIMAJOR_AXIS":"6925.378","MEAN_ELEMENT_THEORY":"SGP4","NORAD_CAT_ID":"47602","RCS_SIZE":"LARGE","TIME_SYSTEM":"UTC","ELEMENT_SET_NO":"999","DECAY_DATE":null,"OBJECT_TYPE":"PAYLOAD","TLE_LINE2":"2 47602  53.0546 344.7811 0001213  79.1544 280.9581 15.06390519113219","MEAN_MOTION_DOT":"0.00000897","REV_AT_EPOCH":"11321","OBJECT_NAME":"STARLINK-2007","OBJECT_ID":"2021-009BG"},{"EPHEMERIS_TYPE":"0","APOAPSIS":"548.181","PERIOD":"95.589","TLE_LINE1":"1 47603U 21009BH  23047.64834762  .00052480  00000-0  35112-2 0  9991","LAUNCH_DATE":"2021-02-04","SEMIMAJOR_AXIS":"6925.195","NORAD_CAT_ID":"47603","MEAN_ELEMENT_THEORY":"SGP4","ARG_OF_PERICENTER":"83.3221","INCLINATION":"53.0545","OBJECT_TYPE":"PAYLOAD","DECAY_DATE":null,"TIME_SYSTEM":"UTC","ELEMENT_SET_NO":"999","RCS_SIZE":"LARGE","OBJECT_ID":"2021-009BH","REV_AT_EPOCH":"11214","OBJECT_NAME":"STARLINK-2008","TLE_LINE2":"2 47603  53.0545  16.2158 0001619  83.3221 276.7952 15.06450122112146","MEAN_MOTION_DOT":"0.00052480","PERIAPSIS":"545.939","SITE":"AFETR","FILE":"3799178","REF_FRAME":"TEME","BSTAR":"0.00351120000000","MEAN_MOTION_DDOT":"0.0000000000000","MEAN_MOTION":"15.06450122","GP_ID":"225683547","EPOCH":"2023-02-16T15:33:37.234368","CENTER_NAME":"EARTH","MEAN_ANOMALY":"276.7952","ECCENTRICITY":"0.00016190","CLASSIFICATION_TYPE":"U","RA_OF_ASC_NODE":"16.2158","COUNTRY_CODE":"US"},{"MEAN_MOTION_DDOT":"0.0000000000000","BSTAR":"-0.00007114400000","REF_FRAME":"TEME","FILE":"3798953","SITE":"AFETR","PERIAPSIS":"546.314","COUNTRY_CODE":"US","RA_OF_ASC_NODE":"344.7484","CLASSIFICATION_TYPE":"U","ECCENTRICITY":"0.00013190","MEAN_ANOMALY":"250.5566","EPOCH":"2023-02-16T23:24:40.737600","CENTER_NAME":"EARTH","GP_ID":"225657889","MEAN_MOTION":"15.06395412","INCLINATION":"53.0545","ARG_OF_PERICENTER":"109.5566","SEMIMAJOR_AXIS":"6925.363","MEAN_ELEMENT_THEORY":"SGP4","NORAD_CAT_ID":"47604","LAUNCH_DATE":"2021-02-04","TLE_LINE1":"1 47604U 21009BJ  23047.97547150 -.00001341  00000-0 -71144-4 0  9999","PERIOD":"95.592","APOAPSIS":"548.141","EPHEMERIS_TYPE":"0","MEAN_MOTION_DOT":"-0.00001341","TLE_LINE2":"2 47604  53.0545 344.7484 0001319 109.5566 250.5566 15.06395412113229","REV_AT_EPOCH":"11322","OBJECT_NAME":"STARLINK-2021","OBJECT_ID":"2021-009BJ","RCS_SIZE":"LARGE","ELEMENT_SET_NO":"999","TIME_SYSTEM":"UTC","DECAY_DATE":null,"OBJECT_TYPE":"PAYLOAD"}];
